SES-2                   
1 37809U 11049A   26064.73418977 -.00000202  00000+0  00000+0 0  9999
2 37809   0.0225  76.3318 0002909 269.0520 355.3726  1.00271914 52924
QUETZSAT 1              
1 37826U 11054A   26064.56795463 -.00000249  00000+0  00000+0 0  9994
2 37826   0.0510 291.2254 0002784  71.4511 288.0710  1.00271010 48830
SES-4                   
1 38087U 12007A   26064.43622072 -.00000178  00000+0  00000+0 0  9995
2 38087   0.0359  66.5072 0002347 256.9214 334.7775  1.00260475 51182
SES-5                   
1 38652U 12036A   26064.65548836  .00000026  00000+0  00000+0 0  9995
2 38652   0.0592 310.9020 0002126  30.0969  63.3269  1.00270058 43419
ASTRA 2F                
1 38778U 12051A   26064.65667453  .00000143  00000+0  00000+0 0  9998
2 38778   0.0943 260.4654 0002395   9.9493 157.5800  1.00276075 40098
SES-6                   
1 39172U 13026A   26064.54684572 -.00000269  00000+0  00000+0 0  9999
2 39172   0.0636 289.8236 0001842  63.8419 325.9573  1.00271853 46688
O3B FM5                 
1 39188U 13031A   26064.49683626 -.00000027  00000+0  00000+0 0  9997
2 39188   0.0979  13.7652 0003333 321.5725  24.6406  5.00116468231859
O3B FM4                 
1 39189U 13031B   26064.41610232 -.00000027  00000+0  00000+0 0  9993
2 39189   0.0553 345.1362 0005086   8.5792   6.2723  5.00115202231854
O3B FM2                 
1 39190U 13031C   26064.48178311 -.00000027  00000+0  00000+0 0  9999
2 39190   0.0563 338.9570 0002843   1.3994  19.6268  5.00116009231927
O3B PFM                 
1 39191U 13031D   26064.49589663 -.00000027  00000+0  00000+0 0  9997
2 39191   0.0667   7.3630 0005139 351.6812   0.9489  5.00115985231489
ASTRA 2E                
1 39285U 13056A   26064.65667465  .00000143  00000+0  00000+0 0  9991
2 39285   0.0715  32.9201 0002187 306.2452  89.0929  1.00272675 45375
SES-8                   
1 39460U 13071A   26064.76799459 -.00000276  00000+0  00000+0 0  9992
2 39460   0.0548 271.7293 0001712  99.7480 163.4890  1.00272679 43406
ASTRA 5B                
1 39617U 14011B   26064.71620332  .00000130  00000+0  00000+0 0  9997
2 39617   0.0882 299.9851 0004072  27.9454 116.8177  1.00271717 43636
O3B FM3                 
1 40079U 14038A   26064.56251995 -.00000027  00000+0  00000+0 0  9994
2 40079   0.0530 353.4032 0000624  56.3760 310.2204  5.00115630207854
O3B FM7                 
1 40080U 14038B   26061.31035470 -.00000029  00000+0  00000+0 0  9996
2 40080   0.0588 348.9474 0004488 339.4059  31.6123  5.00115622212532
O3B FM6                 
1 40081U 14038C   26064.33572354 -.00000027  00000+0  00000+0 0  9997
2 40081   0.0549 351.2781 0002660 350.0303  18.6758  5.00115721212639
O3B FM8                 
1 40082U 14038D   26063.58947926 -.00000027  00000+0  00000+0 0  9995
2 40082   0.0558 350.6431 0002658 354.8269  14.5160  5.00115977212719
